NORAD_CAT_ID,OBJECT_NAME,OBJECT_TYPE,EPOCH,MEAN_MOTION,ECCENTRICITY,INCLINATION,RA_OF_ASC_NODE,ARG_OF_PERICENTER,MEAN_ANOMALY,BSTAR,MEAN_MOTION_DOT,MEAN_MOTION_DDOT,TLE_LINE0,TLE_LINE1,TLE_LINE2,SEMIMAJOR_AXIS,PERIOD,APOGEE,PERIGEE,DECAYED
49456.0,STARLINK-3124,PAYLOAD,2022-02-25 20:00:01,15.08833684,0.0002028,53.2175,351.0106,43.4985,25.4102,0.00099907,0.00015645,0.0,0 STARLINK-3124,1 49456U 21104BA  22056.83334491  .00015645  00000-0  99907-3 0  9994,2 49456  53.2175 351.0106 0002028  43.4985  25.4102 15.08833684 17507,6917.9,95.438,541.168,538.362,0.0
49456.0,STARLINK-3124,PAYLOAD,2022-02-25 22:00:00,15.08849697,0.0002071,53.2175,350.6369,42.8439,118.9588,-0.0011143,-0.00017984,0.0,0 STARLINK-3124,1 49456U 21104BA  22056.91667824 -.00017984  00000-0 -11143-2 0  9997,2 49456  53.2175 350.6369 0002071  42.8439 118.9588 15.08849697  3612,6917.851,95.437,541.148,538.283,0.0
49456.0,STARLINK-3124,PAYLOAD,2022-02-26 14:00:01,15.08839579,0.0002101,53.2178,347.6438,42.0807,142.9335,0.00082106,0.00012803,0.0,0 STARLINK-3124,1 49456U 21104BA  22057.58334491  .00012803  00000-0  82106-3 0  9993,2 49456  53.2178 347.6438 0002101  42.0807 142.9335 15.08839579  3584,6917.882,95.438,541.2,538.293,0.0
49456.0,STARLINK-3124,PAYLOAD,2022-02-26 20:00:01,15.08854925,0.0002124,53.2179,346.5213,45.2166,58.556,0.00029559,4.421e-05,0.0,0 STARLINK-3124,1 49456U 21104BA  22057.83335648  .00004421  00000-0  29559-3 0  9996,2 49456  53.2179 346.5213 0002124  45.2166  58.5560 15.08854925 17659,6917.835,95.437,541.169,538.23,0.0
49456.0,STARLINK-3124,PAYLOAD,2022-02-26 22:00:00,15.08867349,0.0002158,53.2179,346.1502,44.13399999999999,152.4747,-0.0015524,-0.00024929,0.0,0 STARLINK-3124,1 49456U 21104BA  22057.91667824 -.00024929  00000-0 -15524-2 0  9992,2 49456  53.2179 346.1502 0002158  44.1340 152.4747 15.08867349  3611,6917.797,95.436,541.155,538.169,0.0
49456.0,STARLINK-3124,PAYLOAD,2022-02-27 12:00:00,15.08847061,0.0002115,53.218,343.5291,41.595,85.3453,-0.0011527999999999,-0.00018592,0.0,0 STARLINK-3124,1 49456U 21104BA  22058.50001157 -.00018592  00000-0 -11528-2 0  9998,2 49456  53.2180 343.5291 0002115  41.5950  85.3453 15.08847061 17757,6917.859,95.437,541.187,538.261,0.0
49456.0,STARLINK-3124,PAYLOAD,2022-02-27 14:00:01,15.08826067,0.0002062,53.218,343.1546,42.2261,177.62,0.0015883,0.00025071,0.0,0 STARLINK-3124,1 49456U 21104BA  22058.58334491  .00025071  00000-0  15883-2 0  9992,2 49456  53.2180 343.1546 0002062  42.2261 177.6200 15.08826067  3607,6917.9230000000025,95.438,541.214,538.362,0.0
49456.0,STARLINK-3124,PAYLOAD,2022-02-27 22:00:00,15.08867473,0.0002092,53.2182,341.659,43.5025,187.9276,-0.002664,-0.00042469,0.0,0 STARLINK-3124,1 49456U 21104BA  22058.91667824 -.00042469  00000-0 -26640-2 0  9993,2 49456  53.2182 341.6590 0002092  43.5025 187.9276 15.08867473  3610,6917.795999999999,95.436,541.109,538.214,0.0
49456.0,STARLINK-3124,PAYLOAD,2022-02-28 04:00:00,15.08831677,0.0002218,53.2181,340.5378,39.4495,110.7022,-2.7844e-06,-3.33e-06,0.0,0 STARLINK-3124,1 49456U 21104BA  22059.16667824 -.00000333  00000-0 -27844-5 0  9995,2 49456  53.2181 340.5378 0002218  39.4495 110.7022 15.08831677 17857,6917.906,95.438,541.305,538.236,0.0
49456.0,STARLINK-3124,PAYLOAD,2022-02-28 14:00:01,15.08816763,0.0002,53.2179,338.6657,42.3104,212.3343,0.0022741,0.00036067,0.0,0 STARLINK-3124,1 49456U 21104BA  22059.58334491  .00036067  00000-0  22741-2 0  9991,2 49456  53.2179 338.6657 0002000  42.3104 212.3343 15.08816763  3614,6917.951,95.439,541.2,538.433,0.0
49456.0,STARLINK-3124,PAYLOAD,2022-02-28 20:00:01,15.08821797,0.0002015,53.218,337.5495,43.0266,130.2982,-0.0061185,-0.00096319,0.0,0 STARLINK-3124,1 49456U 21104BA  22059.83334491 -.00096319  00000-0 -61185-2 0  9992,2 49456  53.2180 337.5495 0002015  43.0266 130.2982 15.08821797 17959,6917.936,95.439,541.195,538.4069999999998,0.0
49456.0,STARLINK-3124,PAYLOAD,2022-02-28 22:00:00,15.08721769,0.0002161,53.218,337.1769,41.155,225.0836,0.0065483999999999,0.00105149,0.0,0 STARLINK-3124,1 49456U 21104BA  22059.91667824  .00105149  00000-0  65484-2 0  9996,2 49456  53.2180 337.1769 0002161  41.1550 225.0836 15.08721769  3590,6918.2419999999975,95.445,541.602,538.612,0.0
49456.0,STARLINK-3124,PAYLOAD,2022-03-01 04:00:00,15.08824071,0.0002224,53.2179,336.0491,40.6554,144.2766,0.002544,0.00040415,0.0,0 STARLINK-3124,1 49456U 21104BA  22060.16667824  .00040415  00000-0  25440-2 0  9997,2 49456  53.2179 336.0491 0002224  40.6554 144.2766 15.08824071 18002,6917.929,95.439,541.3330000000002,538.256,0.0
49456.0,STARLINK-3124,PAYLOAD,2022-03-01 14:00:01,15.08840642,0.0001995,53.2174,334.177,44.7598,244.6776,0.00096994,0.00015183,0.0,0 STARLINK-3124,1 49456U 21104BA  22060.58334491  .00015183  00000-0  96994-3 0  9991,2 49456  53.2174 334.1770 0001995  44.7598 244.6776 15.08840642  3599,6917.878000000002,95.438,541.124,538.363,0.0
49456.0,STARLINK-3124,PAYLOAD,2022-03-01 20:00:01,15.08864521,0.0002,53.2175,333.0552,45.8595,162.2772,-0.0030581,-0.00048663,0.0,0 STARLINK-3124,1 49456U 21104BA  22060.83334491 -.00048663  00000-0 -30581-2 0  9999,2 49456  53.2175 333.0552 0002000  45.8595 162.2772 15.08864521 18109,6917.805,95.436,541.054,538.2869999999998,0.0
49456.0,STARLINK-3124,PAYLOAD,2022-03-01 22:00:01,15.08850297,0.0002044,53.2173,332.6816,43.8649,257.2414,-0.0021974,-0.00035101,0.0,0 STARLINK-3124,1 49456U 21104BA  22060.91668981 -.00035101  00000-0 -21974-2 0  9991,2 49456  53.2173 332.6816 0002044  43.8649 257.2414 15.08850297  3614,6917.849,95.437,541.128,538.3,0.0
49456.0,STARLINK-3124,PAYLOAD,2022-03-02 12:00:00,15.08828659,0.0001962,53.2169,330.0625,41.6964,189.6325,-0.0016934,-0.0002713,0.0,0 STARLINK-3124,1 49456U 21104BA  22061.50001157 -.00027130  00000-0 -16934-2 0  9996,2 49456  53.2169 330.0625 0001962  41.6964 189.6325 15.08828659 18200,6917.915,95.438,541.137,538.423,0.0
49456.0,STARLINK-3124,PAYLOAD,2022-03-02 14:00:01,15.08795728,0.0001923,53.2167,329.6881,43.1072,281.1259,0.0022105,0.00035025,0.0,0 STARLINK-3124,1 49456U 21104BA  22061.58334491  .00035025  00000-0  22105-2 0  9991,2 49456  53.2167 329.6881 0001923  43.1072 281.1259 15.08795728  3589,6918.016,95.44,541.211,538.55,0.0
49456.0,STARLINK-3124,PAYLOAD,2022-03-02 22:00:00,15.08831243,0.0002042,53.2167,328.1929,42.5015,293.2849,-0.0014252,-0.00022894,0.0,0 STARLINK-3124,1 49456U 21104BA  22061.91667824 -.00022894  00000-0 -14252-2 0  9993,2 49456  53.2167 328.1929 0002042  42.5015 293.2849 15.08831243  3604,6917.906999999997,95.438,541.185,538.36,0.0
49456.0,STARLINK-3124,PAYLOAD,2022-03-03 04:00:00,15.08797543,0.0002178,53.2167,327.0717,39.5867,214.8856,0.0031608,0.00050318,0.0,0 STARLINK-3124,1 49456U 21104BA  22062.16667824  .00050318  00000-0  31608-2 0  9995,2 49456  53.2167 327.0717 0002178  39.5867 214.8856 15.08797543 18302,6918.01,95.44,541.382,538.368,0.0
49456.0,STARLINK-3124,PAYLOAD,2022-03-03 12:00:00,15.08818171,0.0002036,53.2165,325.5736,42.8822,223.1585,0.00082652,0.00012883,0.0,0 STARLINK-3124,1 49456U 21104BA  22062.50001157  .00012883  00000-0  82652-3 0  9995,2 49456  53.2165 325.5736 0002036  42.8822 223.1585 15.08818171 18353,6917.946999999999,95.439,541.221,538.404,0.0
49456.0,STARLINK-3124,PAYLOAD,2022-03-03 14:00:01,15.08801925,0.0002002,53.2163,325.1992,44.46100000000001,314.4791,0.0032011,0.00050973,0.0,0 STARLINK-3124,1 49456U 21104BA  22062.58334491  .00050973  00000-0  32011-2 0  9998,2 49456  53.2163 325.1992 0002002  44.4610 314.4791 15.08801925  3601,6917.996999999999,95.44,541.247,538.477,0.0
49456.0,STARLINK-3124,PAYLOAD,2022-03-03 22:00:00,15.08846629,0.0002169,53.2164,323.7041,44.0112,326.4975,-0.0015122999999999,-0.00024281,0.0,0 STARLINK-3124,1 49456U 21104BA  22062.91667824 -.00024281  00000-0 -15123-2 0  9994,2 49456  53.2164 323.7041 0002169  44.0112 326.4975 15.08846629  3605,6917.86,95.437,541.226,538.225,0.0
49456.0,STARLINK-3124,PAYLOAD,2022-03-04 14:00:01,15.08826287,0.0002083,53.2162,320.7099,45.556,348.2133,0.0025104,0.00039877,0.0,0 STARLINK-3124,1 49456U 21104BA  22063.58335648  .00039877  00000-0  25104-2 0  9999,2 49456  53.2162 320.7099 0002083  45.5560 348.2133 15.08826287  3607,6917.922,95.438,541.2280000000002,538.346,0.0
49456.0,STARLINK-3124,PAYLOAD,2022-03-04 20:00:03,15.08872532,0.000216,53.2164,319.5883,45.4891,267.03700000000003,-0.0037208,-0.00059074,0.0,0 STARLINK-3124,1 49456U 21104BA  22063.83336806 -.00059074  00000-0 -37208-2 0  9995,2 49456  53.2164 319.5883 0002160  45.4891 267.0370 15.08872532 18553,6917.781,95.435,541.14,538.1519999999998,0.0
49456.0,STARLINK-3124,PAYLOAD,2022-03-04 22:00:00,15.08857493,0.0002225,53.2163,319.2149,43.9408,1.3676,-0.0028434,-0.0004528,0.0,0 STARLINK-3124,1 49456U 21104BA  22063.91667824 -.00045280  00000-0 -28434-2 0  9996,2 49456  53.2163 319.2149 0002225  43.9408   1.3676 15.08857493  3598,6917.8269999999975,95.436,541.231,538.153,0.0
49456.0,STARLINK-3124,PAYLOAD,2022-03-05 04:00:01,15.08814194,0.0002293,53.2163,318.0932,40.7668,283.3088,0.0031103,0.00049526,0.0,0 STARLINK-3124,1 49456U 21104BA  22064.16668981  .00049526  00000-0  31103-2 0  9991,2 49456  53.2163 318.0932 0002293  40.7668 283.3088 15.08814194 18601,6917.959,95.439,541.411,538.238,0.0
49456.0,STARLINK-3124,PAYLOAD,2022-03-05 06:00:00,15.08840137,0.0002277,53.2161,317.7187,40.3347,16.5706,0.00063922,9.9e-05,0.0,0 STARLINK-3124,1 49456U 21104BA  22064.25001157  .00009900  00000-0  63922-3 0  9994,2 49456  53.2161 317.7187 0002277  40.3347  16.5706 15.08840137  3578,6917.88,95.438,541.32,538.17,0.0
49456.0,STARLINK-3124,PAYLOAD,2022-03-05 14:00:01,15.08833795,0.0002078,53.2163,316.2206,45.00899999999999,23.5016,0.0014875,0.00023461,0.0,0 STARLINK-3124,1 49456U 21104BA  22064.58334491  .00023461  00000-0  14875-2 0  9990,2 49456  53.2163 316.2206 0002078  45.0090  23.5016 15.08833795  3587,6917.899,95.438,541.202,538.327,0.0
